{
  "norad_id": 68365,
  "name": "RASSVET-3 OBJECT F",
  "history": [
    {
      "epoch": "2026-03-31T15:46:21.239328Z",
      "apogee_km": 323.9690938788726,
      "perigee_km": 287.9538345340343,
      "latitude_deg": -1.6001661437503527e-06,
      "longitude_deg": 34.091277987851406,
      "height_km": 296.2992763361103,
      "semi_major_axis_km": 6684.098464206453,
      "eccentricity": 0.0026941,
      "inclination_deg": 82.2971,
      "raan_deg": 99.7112,
      "arg_perigee_deg": 44.7847,
      "mean_anomaly_deg": 315.5592,
      "mean_motion_rev_day": 15.88687592
    }
  ]
}